*******************************************************************************
Ephemeris / PORT_LOGIN Sun Apr 13 03:16:01 2014 Pasadena, USA    / Horizons
*******************************************************************************
Target body name: 1981 Midas (1973 EA)            {source: JPL#109}
Center body name: Earth (399)                     {source: DE-0431LE-0431}
Center-site name: GEOCENTRIC
*******************************************************************************
Start time      : A.D. 2014-Apr-13 00:00:00.0000 UT
Stop  time      : A.D. 2014-Apr-14 00:00:00.0000 UT
Step-size       : 1 minutes
*******************************************************************************
Target pole/equ : No model available
Target radii    : 1.7 km
Center geodetic : 0.00000000,0.00000000,0.0000000 {E-lon(deg),Lat(deg),Alt(km)}
Center cylindric: 0.00000000,0.00000000,0.0000000 {E-lon(deg),Dxy(km),Dz(km)}
Center pole/equ : High-precision EOP model        {East-longitude +}
Center radii    : 6378.1 x 6378.1 x 6356.8 km     {Equator, meridian, pole}
Target primary  : Sun
Vis. interferer : MOON (R_eq= 1737.400) km        {source: DE-0431LE-0431}
Rel. light bend : Sun, EARTH                      {source: DE-0431LE-0431}
Rel. lght bnd GM: 1.3271E+11, 3.9860E+05 km^3/s^2
Small-body perts: Yes                             {source: SB431-BIG16}
Atmos refraction: NO (AIRLESS)
RA format       : DEG
Time format     : BOTH
EOP file        : eop.140411.p140703
EOP coverage    : DATA-BASED 1962-JAN-20 TO 2014-APR-11. PREDICTS-> 2014-JUL-02
Units conversion: 1 au= 149597870.700 km, c= 299792.458 km/s, 1 day= 86400.0 s
Table cut-offs 1: Elevation (-90.0deg=NO ),Airmass (>38.000=NO), Daylight (YES)
Table cut-offs 2: Solar Elongation (  0.0,180.0=NO ),Local Hour Angle( 0.0=NO )
Table format    : Comma Separated Values (spreadsheet)
*******************************************************************************
Initial FK5/J2000.0 heliocentric ecliptic osculating elements (au, days, deg.):
  EPOCH=  2454538.5 ! 2008-Mar-13.00 (CT)          Residual RMS= .46849
   EC= .6501656235341694   QR= .6213463299693056   TP= 2454791.2976774885
   OM= 357.0092130019748   W=  267.7633761376748   IN= 39.83511314132186
Asteroid physical parameters (km, seconds, rotational period in hours):
   GM= n.a.                RAD= 1.7                ROTPER= 5.22
   H= 15.2                 G= .150                 B-V= n.a.
                           ALBEDO= n.a.            STYP= V
**********************************************************************************************
 Date__(UT)__HR:MN, Date_________JDUT, , ,R.A._(ICRF/J2000.0), DEC_(ICRF/J2000.0),   1-way_LT,
**********************************************************************************************
$$SOE
 2014-Apr-13 01:30, 2456760.562500000, , , 31.2400967, 40.1934767,  27.356025,
 2014-Apr-13 01:31, 2456760.563194444, , , 31.2404251, 40.1935910,  27.356076,
 2014-Apr-13 01:32, 2456760.563888889, , , 31.2407535, 40.1937052,  27.356127,
 2014-Apr-13 01:33, 2456760.564583333, , , 31.2410819, 40.1938195,  27.356178,
 2014-Apr-13 01:34, 2456760.565277778, , , 31.2414103, 40.1939338,  27.356229,
 2014-Apr-13 01:35, 2456760.565972222, , , 31.2417387, 40.1940480,  27.356280,
 2014-Apr-13 01:36, 2456760.566666667, , , 31.2420671, 40.1941623,  27.356331,
 2014-Apr-13 01:37, 2456760.567361111, , , 31.2423954, 40.1942765,  27.356382,
 2014-Apr-13 01:38, 2456760.568055556, , , 31.2427238, 40.1943908,  27.356433,
 2014-Apr-13 01:39, 2456760.568750000, , , 31.2430522, 40.1945051,  27.356484,
 2014-Apr-13 01:40, 2456760.569444444, , , 31.2433806, 40.1946193,  27.356534,
 2014-Apr-13 01:41, 2456760.570138889, , , 31.2437090, 40.1947336,  27.356585,
 2014-Apr-13 01:42, 2456760.570833333, , , 31.2440374, 40.1948479,  27.356636,
 2014-Apr-13 01:43, 2456760.571527778, , , 31.2443658, 40.1949621,  27.356687,
 2014-Apr-13 01:44, 2456760.572222222, , , 31.2446942, 40.1950764,  27.356738,
 2014-Apr-13 01:45, 2456760.572916667, , , 31.2450226, 40.1951907,  27.356789,
 2014-Apr-13 01:46, 2456760.573611111, , , 31.2453510, 40.1953049,  27.356840,
 2014-Apr-13 01:47, 2456760.574305556, , , 31.2456794, 40.1954192,  27.356891,
 2014-Apr-13 01:48, 2456760.575000000, , , 31.2460078, 40.1955335,  27.356942,
 2014-Apr-13 01:49, 2456760.575694445, , , 31.2463362, 40.1956477,  27.356993,
 2014-Apr-13 01:50, 2456760.576388889, , , 31.2466646, 40.1957620,  27.357044,
 2014-Apr-13 01:51, 2456760.577083333, , , 31.2469930, 40.1958762,  27.357095,
 2014-Apr-13 01:52, 2456760.577777778, , , 31.2473214, 40.1959905,  27.357146,
 2014-Apr-13 01:53, 2456760.578472222, , , 31.2476498, 40.1961048,  27.357197,
 2014-Apr-13 01:54, 2456760.579166667, , , 31.2479782, 40.1962190,  27.357248,
 2014-Apr-13 01:55, 2456760.579861111, , , 31.2483066, 40.1963333,  27.357299,
 2014-Apr-13 01:56, 2456760.580555555, , , 31.2486350, 40.1964476,  27.357350,
 2014-Apr-13 01:57, 2456760.581250000, , , 31.2489634, 40.1965618,  27.357401,
 2014-Apr-13 01:58, 2456760.581944444, , , 31.2492918, 40.1966761,  27.357452,
 2014-Apr-13 01:59, 2456760.582638889, , , 31.2496202, 40.1967903,  27.357503,
 2014-Apr-13 02:00, 2456760.583333333, , , 31.2499486, 40.1969046,  27.357554,
 2014-Apr-13 02:01, 2456760.584027778, , , 31.2502770, 40.1970189,  27.357605,
 2014-Apr-13 02:02, 2456760.584722222, , , 31.2506054, 40.1971331,  27.357656,
 2014-Apr-13 02:03, 2456760.585416667, , , 31.2509338, 40.1972474,  27.357707,
 2014-Apr-13 02:04, 2456760.586111111, , , 31.2512622, 40.1973617,  27.357757,
 2014-Apr-13 02:05, 2456760.586805556, , , 31.2515906, 40.1974759,  27.357808,
 2014-Apr-13 02:06, 2456760.587500000, , , 31.2519190, 40.1975902,  27.357859,
 2014-Apr-13 02:07, 2456760.588194444, , , 31.2522474, 40.1977044,  27.357910,
 2014-Apr-13 02:08, 2456760.588888889, , , 31.2525758, 40.1978187,  27.357961,
 2014-Apr-13 02:09, 2456760.589583333, , , 31.2529042, 40.1979330,  27.358012,
 2014-Apr-13 02:10, 2456760.590277778, , , 31.2532326, 40.1980472,  27.358063,
 2014-Apr-13 02:11, 2456760.590972222, , , 31.2535610, 40.1981615,  27.358114,
 2014-Apr-13 02:12, 2456760.591666667, , , 31.2538894, 40.1982757,  27.358165,
 2014-Apr-13 02:13, 2456760.592361111, , , 31.2542178, 40.1983900,  27.358216,
 2014-Apr-13 02:14, 2456760.593055556, , , 31.2545463, 40.1985042,  27.358267,
 2014-Apr-13 02:15, 2456760.593750000, , , 31.2548747, 40.1986185,  27.358318,
 2014-Apr-13 02:16, 2456760.594444444, , , 31.2552031, 40.1987328,  27.358369,
 2014-Apr-13 02:17, 2456760.595138889, , , 31.2555315, 40.1988470,  27.358420,
 2014-Apr-13 02:18, 2456760.595833333, , , 31.2558599, 40.1989613,  27.358471,
 2014-Apr-13 02:19, 2456760.596527778, , , 31.2561883, 40.1990755,  27.358522,
 2014-Apr-13 02:20, 2456760.597222222, , , 31.2565167, 40.1991898,  27.358573,
 2014-Apr-13 02:21, 2456760.597916667, , , 31.2568451, 40.1993041,  27.358624,
 2014-Apr-13 02:22, 2456760.598611111, , , 31.2571735, 40.1994183,  27.358674,
 2014-Apr-13 02:23, 2456760.599305556, , , 31.2575019, 40.1995326,  27.358725,
 2014-Apr-13 02:24, 2456760.600000000, , , 31.2578303, 40.1996468,  27.358776,
 2014-Apr-13 02:25, 2456760.600694444, , , 31.2581588, 40.1997611,  27.358827,
 2014-Apr-13 02:26, 2456760.601388889, , , 31.2584872, 40.1998753,  27.358878,
 2014-Apr-13 02:27, 2456760.602083333, , , 31.2588156, 40.1999896,  27.358929,
 2014-Apr-13 02:28, 2456760.602777778, , , 31.2591440, 40.2001039,  27.358980,
 2014-Apr-13 02:29, 2456760.603472222, , , 31.2594724, 40.2002181,  27.359031,
 2014-Apr-13 02:30, 2456760.604166667, , , 31.2598008, 40.2003324,  27.359082,
 2014-Apr-13 02:31, 2456760.604861111, , , 31.2601292, 40.2004466,  27.359133,
 2014-Apr-13 02:32, 2456760.605555556, , , 31.2604576, 40.2005609,  27.359184,
 2014-Apr-13 02:33, 2456760.606250000, , , 31.2607861, 40.2006751,  27.359235,
 2014-Apr-13 02:34, 2456760.606944445, , , 31.2611145, 40.2007894,  27.359286,
 2014-Apr-13 02:35, 2456760.607638889, , , 31.2614429, 40.2009036,  27.359337,
 2014-Apr-13 02:36, 2456760.608333333, , , 31.2617713, 40.2010179,  27.359388,
 2014-Apr-13 02:37, 2456760.609027778, , , 31.2620997, 40.2011322,  27.359439,
 2014-Apr-13 02:38, 2456760.609722222, , , 31.2624281, 40.2012464,  27.359489,
 2014-Apr-13 02:39, 2456760.610416667, , , 31.2627566, 40.2013607,  27.359540,
 2014-Apr-13 02:40, 2456760.611111111, , , 31.2630850, 40.2014749,  27.359591,
 2014-Apr-13 02:41, 2456760.611805555, , , 31.2634134, 40.2015892,  27.359642,
 2014-Apr-13 02:42, 2456760.612500000, , , 31.2637418, 40.2017034,  27.359693,
 2014-Apr-13 02:43, 2456760.613194444, , , 31.2640702, 40.2018177,  27.359744,
 2014-Apr-13 02:44, 2456760.613888889, , , 31.2643987, 40.2019319,  27.359795,
 2014-Apr-13 02:45, 2456760.614583333, , , 31.2647271, 40.2020462,  27.359846,
 2014-Apr-13 02:46, 2456760.615277778, , , 31.2650555, 40.2021604,  27.359897,
 2014-Apr-13 02:47, 2456760.615972222, , , 31.2653839, 40.2022747,  27.359948,
 2014-Apr-13 02:48, 2456760.616666667, , , 31.2657123, 40.2023889,  27.359999,
 2014-Apr-13 02:49, 2456760.617361111, , , 31.2660408, 40.2025032,  27.360050,
 2014-Apr-13 02:50, 2456760.618055556, , , 31.2663692, 40.2026174,  27.360101,
 2014-Apr-13 02:51, 2456760.618750000, , , 31.2666976, 40.2027317,  27.360152,
 2014-Apr-13 02:52, 2456760.619444444, , , 31.2670260, 40.2028460,  27.360202,
 2014-Apr-13 02:53, 2456760.620138889, , , 31.2673544, 40.2029602,  27.360253,
 2014-Apr-13 02:54, 2456760.620833333, , , 31.2676829, 40.2030745,  27.360304,
 2014-Apr-13 02:55, 2456760.621527778, , , 31.2680113, 40.2031887,  27.360355,
 2014-Apr-13 02:56, 2456760.622222222, , , 31.2683397, 40.2033030,  27.360406,
 2014-Apr-13 02:57, 2456760.622916667, , , 31.2686681, 40.2034172,  27.360457,
 2014-Apr-13 02:58, 2456760.623611111, , , 31.2689966, 40.2035315,  27.360508,
 2014-Apr-13 02:59, 2456760.624305556, , , 31.2693250, 40.2036457,  27.360559,
$$EOE
**********************************************************************************************